STARLINK-1788           
1 46689U 20073V   24280.11752082  .00018381  00000+0  12497-2 0  9992
2 46689  53.0542  69.7211 0001368  72.9629 287.1509 15.06398306219840
STARLINK-1789           
1 46690U 20073W   24280.05525326  .00024965  00000+0  16880-2 0  9991
2 46690  53.0552  44.3453 0001298  97.7300 262.3836 15.06421118218949
STARLINK-1790           
1 46691U 20073X   24279.65623761  .00026892  00000+0  18177-2 0  9990
2 46691  53.0541  56.1357 0000914  82.4946 277.6147 15.06393388218742
STARLINK-1791           
1 46692U 20073Y   24279.70829442  .00004034  00000+0  28956-3 0  9992
2 46692  53.0536  70.9014 0000986 102.4507 257.6592 15.06396204218546
STARLINK-1792           
1 46693U 20073Z   24280.10977516  .00091123  00000+0  47607-2 0  9993
2 46693  53.0507  51.8506 0002667 268.6400  91.4288 15.15129249218846
STARLINK-1793           
1 46694U 20073AA  24280.61275132  .00039802  00000+0  26730-2 0  9995
2 46694  53.0558  31.8435 0001399  98.7647 261.3501 15.06440067219175
STARLINK-1795           
1 46696U 20073AC  24280.03405977  .00004869  00000+0  34558-3 0  9998
2 46696  53.0551  34.4416 0001611  91.0205 269.0969 15.06397989219088
STARLINK-1797           
1 46698U 20073AE  24280.08019950  .00007725  00000+0  53679-3 0  9996
2 46698  53.0548  54.8138 0001246 111.6709 248.4413 15.06408464218800
STARLINK-1799           
1 46699U 20073AF  24279.69677379  .00001567  00000+0  12412-3 0  9995
2 46699  53.0538  55.9522 0000961  91.6897 268.4202 15.06389413218751
STARLINK-1800           
1 46700U 20073AG  24279.89996308  .00002019  00000+0  15444-3 0  9997
2 46700  53.0540  70.0431 0001136  95.6970 264.4149 15.06388538219052
STARLINK-1801           
1 46701U 20073AH  24279.66728914  .00026032  00000+0  17611-2 0  9997
2 46701  53.0553  56.0873 0001252 104.6751 255.4377 15.06378125218758
STARLINK-1802           
1 46702U 20073AJ  24280.60903917 -.00000040  00000+0  16186-4 0  9992
2 46702  53.0561  31.8601 0001270  89.8600 270.2534 15.06417725219172
STARLINK-1803           
1 46703U 20073AK  24280.10960583  .00016320  00000+0  11119-2 0  9996
2 46703  53.0558  54.0981 0001366 108.5395 251.5743 15.06401946218815
STARLINK-1805           
1 46705U 20073AM  24279.70461310 -.00001051  00000+0 -51715-4 0  9991
2 46705  53.0529  70.9179 0001165 102.8435 257.2685 15.06394050218545
STARLINK-1807           
1 46706U 20073AN  24280.07643719  .00003236  00000+0  23602-3 0  9997
2 46706  53.0552  54.2515 0001290  94.6033 265.5104 15.06400133218810
STARLINK-1808           
1 46707U 20073AP  24280.59798891  .00006876  00000+0  47985-3 0  9990
2 46707  53.0553  31.9072 0001316  88.0823 272.0316 15.06417342219173
STARLINK-1810           
1 46709U 20073AR  24280.14326726  .00018224  00000+0  12389-2 0  9996
2 46709  53.0542  69.0749 0000961  96.0252 264.0846 15.06408139218606
STARLINK-1813           
1 46711U 20073AT  24280.06905855  .00017506  00000+0  11914-2 0  9991
2 46711  53.0552  54.2840 0001077  93.0728 267.0384 15.06393547218811
STARLINK-1814           
1 46712U 20073AU  24280.11330804  .00002640  00000+0  19608-3 0  9996
2 46712  53.0550  54.2078 0001195 112.0712 248.0404 15.06401066218817
STARLINK-1815           
1 46713U 20073AV  24279.71428332  .00030486  00000+0  20558-2 0  9999
2 46713  53.0547  55.8648 0001141  89.2807 270.8313 15.06416843218759
STARLINK-1816           
1 46714U 20073AW  24280.10223712  .00002807  00000+0  20724-3 0  9992
2 46714  53.0537  54.1311 0001225 104.9477 255.1647 15.06408484218814
STARLINK-1817           
1 46715U 20073AX  24280.09855332  .00016750  00000+0  11405-2 0  9997
2 46715  53.0548  54.1519 0001134 103.8971 256.2144 15.06406920218810
STARLINK-1818           
1 46716U 20073AY  24280.58334491  .00340598  00000+0  20813-1 0  9992
2 46716  53.0535  66.9604 0001171  70.4990 324.9342 15.08117734  5804
STARLINK-1820           
1 46717U 20073AZ  24280.11697967  .00027088  00000+0  18306-2 0  9993
2 46717  53.0542  54.0682 0001185  94.1753 265.9372 15.06396513218818
STARLINK-1821           
1 46718U 20073BA  24279.69726284  .00001474  00000+0  11788-3 0  9999
2 46718  53.0535  70.9946 0001185  89.8363 270.2762 15.06388908218540
STARLINK-1822           
1 46719U 20073BB  24280.60535245  .00010838  00000+0  74465-3 0  9993
2 46719  53.0555  31.8740 0001704  74.6835 285.4343 15.06436285219179
STARLINK-1826           
1 46723U 20073BF  24280.60767802  .00022538  00000+0  15258-2 0  9998
2 46723  53.0559  26.8708 0001954 107.2934 252.8269 15.06431043219246
STARLINK-1828           
1 46725U 20073BH  24280.14692877  .00013767  00000+0  94117-3 0  9994
2 46725  53.0540  68.9323 0001323  96.4001 263.7139 15.06404927218610
STARLINK-1829           
1 46726U 20073BJ  24280.10497789  .00023181  00000+0  15693-2 0  9998
2 46726  53.0549  54.1102 0001280 101.8299 258.2834 15.06416281218813
STARLINK-1830           
1 46727U 20073BK  24280.59292703  .00042127  00000+0  28260-2 0  9996
2 46727  53.0544  26.9302 0001210 100.6856 259.4269 15.06455441219241
STARLINK-1848           
1 46740U 20074B   24280.15524929  .00019167  00000+0  13024-2 0  9992
2 46740  53.0519 138.8959 0001799  83.3366 276.7828 15.06392890218299
STARLINK-1865           
1 46741U 20074C   24280.57036117  .00005542  00000+0  39053-3 0  9999
2 46741  53.0525 132.0336 0001197  86.3307 273.7819 15.06410627218434
STARLINK-1892           
1 46743U 20074E   24280.29759976  .00027571  00000+0  18619-2 0  9995
2 46743  53.0526 133.2616 0001446 119.0995 241.0139 15.06413491218395
STARLINK-1894           
1 46744U 20074F   24280.01013499  .00030778  00000+0  20768-2 0  9990
2 46744  53.0527 134.8206 0001441  94.9565 265.1588 15.06387623218345
STARLINK-1905           
1 46746U 20074H   24280.33078392  .00024322  00000+0  16462-2 0  9994
2 46746  53.0517 133.1107 0001243  74.3720 285.7406 15.06397972218393
STARLINK-1908           
1 46747U 20074J   24280.31235584 -.00008265  00000+0 -53697-3 0  9993
2 46747  53.0529 133.1912 0001349  80.9094 279.2047 15.06373756218398
STARLINK-1910           
1 46748U 20074K   24280.58334491  .00619067  00000+0  32688-1 0  9991
2 46748  53.0514 131.8309 0001244 101.0307 324.1399 15.12871843  5744
STARLINK-1911           
1 46749U 20074L   24280.32708836  .00023449  00000+0  15887-2 0  9998
2 46749  53.0517 133.1281 0001597  73.4774 286.6390 15.06381088218393
STARLINK-1920           
1 46751U 20074N   24280.58334491  .00067380  00000+0  38523-2 0  9995
2 46751  53.0511 131.8504 0001345 109.7091 286.4702 15.12073740  5804
STARLINK-1921           
1 46752U 20074P   24279.87003924 -.00000250  00000+0  21368-5 0  9996
2 46752  53.0532 135.1716 0001400  99.1234 260.9913 15.06382124218329
STARLINK-1922           
1 46753U 20074Q   24280.56667677  .00016892  00000+0  11502-2 0  9990
2 46753  53.0526 132.0508 0001312 108.4681 251.6451 15.06400355218433
STARLINK-1923           
1 46754U 20074R   24280.58334491  .01410168  00000+0  23413-1 0  9996
2 46754  53.0492 129.4989 0001052 106.2329 131.7933 15.48871466  5691
STARLINK-1924           
1 46755U 20074S   24280.31372850  .00011497  00000+0  78979-3 0  9999
2 46755  53.0533 138.1904 0001784 128.2267 231.8883 15.06386020218322
STARLINK-1925           
1 46756U 20074T   24280.60865238  .00020709  00000+0  14045-2 0  9998
2 46756  53.0521 137.2565 0001325  85.1546 274.9594 15.06416195218363
STARLINK-1926           
1 46757U 20074U   24280.58334491  .00364106  00000+0  20594-2 0  9996
2 46757  53.0409  79.8463 0005242 279.8775 174.7261 15.77529476  5935
STARLINK-1928           
1 46758U 20074V   24279.89721973  .00025515  00000+0  17266-2 0  9994
2 46758  53.0530 140.0558 0001502 105.4981 254.6174 15.06379151218263
STARLINK-1833           
1 46759U 20074W   24280.35704486  .00029894  00000+0  20174-2 0  9994
2 46759  53.0518 147.9921 0001418 112.2281 247.8859 15.06397452218184
STARLINK-1896           
1 46760U 20074X   24280.36810751  .00032577  00000+0  21961-2 0  9997
2 46760  53.0510 147.9445 0001346  77.8344 282.2796 15.06395507218198
STARLINK-1903           
1 46764U 20074AB  24280.36073482  .00031418  00000+0  21193-2 0  9993
2 46764  53.0507 147.9762 0001371  62.4958 297.6170 15.06389926218193
STARLINK-1906           
1 46765U 20074AC  24280.34502555 -.00000019  00000+0  17613-4 0  9998
2 46765  53.0546 148.0045 0001476  91.8425 268.2733 15.06394664218187
STARLINK-1916           
1 46766U 20074AD  24280.60768675  .00026173  00000+0  17693-2 0  9999
2 46766  53.0520 146.8681 0001308 118.2777 241.8344 15.06403775218235
STARLINK-1917           
1 46767U 20074AE  24280.37179358  .00033004  00000+0  22239-2 0  9991
2 46767  53.0513 147.9279 0001258 108.6169 251.4957 15.06405285218195
STARLINK-1918           
1 46768U 20074AF  24280.58334491  .00080824  00000+0  46104-2 0  9995
2 46768  53.0505 146.7764 0001689 104.4649  47.1588 15.12061507  5802
STARLINK-1932           
1 46770U 20074AH  24280.58334491  .00429853  00000+0  25874-1 0  9997
2 46770  53.0522 147.5075 0001344 113.1683 262.3634 15.08197004  5801
STARLINK-1936           
1 46772U 20074AK  24279.91747384  .00023633  00000+0  16011-2 0  9993
2 46772  53.0525 149.9529 0001270  71.7576 288.3551 15.06378583218122
STARLINK-1798           
1 46779U 20074AS  24280.54548016  .00014132  00000+0  96550-3 0  9993
2 46779  53.0522 122.1448 0001235 100.7762 259.3366 15.06408919218567
STARLINK-1832           
1 46780U 20074AT  24280.26903351  .00013514  00000+0  92441-3 0  9999
2 46780  53.0525 123.3891 0001458 113.6233 246.4909 15.06399509218250
STARLINK-1834           
1 46781U 20074AU  24280.28655509  .00023342  00000+0  15809-2 0  9993
2 46781  53.0523 133.3095 0001437  71.9378 288.1768 15.06396768218394
STARLINK-1835           
1 46782U 20074AV  24279.99259006  .00017818  00000+0  12123-2 0  9999
2 46782  53.0532 124.6316 0001237  69.0516 291.0606 15.06391896218485
